City,Nr.,Borough,Neighbourhood,Address,location,point,latitude,longitude,altitude
Vienna,1.0,Innere Stadt,Innere Stadt,"Innere Stadt, Vienna","KG Innere Stadt, Innere Stadt, Wien, 1010, Österreich","(48.2090229, 16.36985112569659, 0.0)",48.2090229,16.36985112569659,0.0
Vienna,2.0,Leopoldstadt,Jägerzeile,"Jägerzeile, Vienna","Jägerzeile, KG Leopoldstadt, Leopoldstadt, Wien, 1020, Österreich","(48.2166064, 16.3894325, 0.0)",48.2166064,16.3894325,0.0
Vienna,2.0,Leopoldstadt,Leopoldstadt,"Leopoldstadt, Vienna","KG Leopoldstadt, Leopoldstadt, Wien, 1020, Österreich","(48.2006384, 16.42694811887545, 0.0)",48.2006384,16.42694811887545,0.0
Vienna,2.0,Leopoldstadt,Zwischenbrücken,"Zwischenbrücken, Vienna","Zwischenbrücken, Brigittenau, Wien, 1200, Österreich","(48.2348212, 16.3866013, 0.0)",48.2348212,16.3866013,0.0
Vienna,3.0,Landstraße,Landstraße,"Landstraße, Vienna","Landstraße, Wien, 1030, Österreich","(48.193643550000004, 16.39628639135705, 0.0)",48.193643550000004,16.39628639135705,0.0
Vienna,3.0,Landstraße,Erdberg,"Erdberg, Vienna","Erdberg, Südosttangente, Erdberger Mais, KG Landstraße, Landstraße, Wien, 1030, Österreich","(48.1914136, 16.4141569, 0.0)",48.1914136,16.4141569,0.0
Vienna,3.0,Landstraße,Weißgerberviertel,"Weißgerberviertel, Vienna","Weißgerber, KG Landstraße, Landstraße, Wien, 1030, Österreich","(48.2109115, 16.3901908, 0.0)",48.2109115,16.3901908,0.0
Vienna,4.0,Wieden,Hungelbrunn,"Hungelbrunn, Vienna","Hungelbrunn, KG Wieden, Wieden, Wien, 1040, Österreich","(48.1876488, 16.3659396, 0.0)",48.1876488,16.3659396,0.0
Vienna,4.0,Wieden,Schaumburgergrund,"Schaumburgergrund, Vienna","Schaumburgergrund, KG Wieden, Wieden, Wien, 1040, Österreich","(48.1890356, 16.3682893, 0.0)",48.1890356,16.3682893,0.0
Vienna,4.0,Wieden,Wieden,"Wieden, Vienna","Wieden, Wien, 1040, Österreich","(48.192314350000004, 16.371367094176243, 0.0)",48.192314350000004,16.371367094176243,0.0
Vienna,5.0,Margareten,Hundsturm,"Hundsturm, Vienna","Hundsturm, KG Margareten, Margareten, Wien, 1050, Österreich","(48.1869295, 16.3470949, 0.0)",48.1869295,16.3470949,0.0
Vienna,5.0,Margareten,Laurenzergrund,"Laurenzergrund, Vienna","Laurenzergrund, KG Margareten, Margareten, Wien, 1050, Österreich","(48.1849105, 16.3630223, 0.0)",48.1849105,16.3630223,0.0
Vienna,5.0,Margareten,Margareten,"Margareten, Vienna","KG Margareten, Margareten, Wien, 1050, Österreich","(48.18807345, 16.35338607721009, 0.0)",48.18807345,16.35338607721009,0.0
Vienna,5.0,Margareten,Matzleinsdorf,"Matzleinsdorf, Vienna","Matzleinsdorf, KG Margareten, Margareten, Wien, 1050, Österreich","(48.1825854, 16.3581841, 0.0)",48.1825854,16.3581841,0.0
Vienna,5.0,Margareten,Nikolsdorf,"Nikolsdorf, Vienna","Nikolsdorf, KG Margareten, Margareten, Wien, 1050, Österreich","(48.1871818, 16.3623106, 0.0)",48.1871818,16.3623106,0.0
Vienna,5.0,Margareten,Reinprechtsdorf,"Reinprechtsdorf, Vienna","Reinprechtsdorf, KG Margareten, Margareten, Wien, 1050, Österreich","(48.1891807, 16.3529308, 0.0)",48.1891807,16.3529308,0.0
Vienna,6.0,Mariahilf,Gumpendorf,"Gumpendorf, Vienna","Gumpendorf, KG Mariahilf, Mariahilf, Wien, 1060, Österreich","(48.191204, 16.3475419, 0.0)",48.191204,16.3475419,0.0
Vienna,6.0,Mariahilf,Laimgrube,"Laimgrube, Vienna","Laimgrube, KG Mariahilf, Mariahilf, Wien, 1060, Österreich","(48.1983912, 16.359865, 0.0)",48.1983912,16.359865,0.0
Vienna,6.0,Mariahilf,Magdalenengrund,"Magdalenengrund, Vienna","Magdalenengrund, KG Mariahilf, Mariahilf, Wien, 1060, Österreich","(48.1960627, 16.35433490295275, 0.0)",48.1960627,16.35433490295275,0.0
Vienna,6.0,Mariahilf,Mariahilf,"Mariahilf, Vienna","KG Mariahilf, Mariahilf, Wien, 1060, Österreich","(48.1954752, 16.347023425336456, 0.0)",48.1954752,16.347023425336456,0.0
Vienna,6.0,Mariahilf,Windmühle,"Windmühle, Vienna","Windmühle, KG Mariahilf, Mariahilf, Wien, 1070, Österreich","(48.19966155, 16.358834220314066, 0.0)",48.19966155,16.358834220314066,0.0
Vienna,7.0,Neubau,Altlerchenfeld,"Altlerchenfeld, Vienna","Altlerchenfeld, Josefstadt, Wien, 1080, Österreich","(48.2076483, 16.3435623, 0.0)",48.2076483,16.3435623,0.0
Vienna,7.0,Neubau,Neubau,"Neubau, Vienna","KG Neubau, Neubau, Wien, 1070, Österreich","(48.2020916, 16.349041808361903, 0.0)",48.2020916,16.349041808361903,0.0
Vienna,7.0,Neubau,Sankt,"Sankt, Vienna","Wien, Österreich","(48.2083537, 16.3725042, 0.0)",48.2083537,16.3725042,0.0
Vienna,7.0,Neubau,Ulrich,"Ulrich, Vienna","Ulrich, 1, St.-Ulrichs-Platz, KG Neubau, Neubau, Wien, 1070, Österreich","(48.2044064, 16.3529253, 0.0)",48.2044064,16.3529253,0.0
Vienna,7.0,Neubau,Schottenfeld,"Schottenfeld, Vienna","Schottenfeld, Neubau, Wien, 1070, Österreich","(48.201671, 16.3446481, 0.0)",48.201671,16.3446481,0.0
Vienna,7.0,Neubau,Spittelberg,"Spittelberg, Vienna","Spittelberg, Neubau, Wien, 1070, Österreich","(48.2033541, 16.3554521, 0.0)",48.2033541,16.3554521,0.0
Vienna,8.0,Josefstadt,Alservorstadt,"Alservorstadt, Vienna","Alservorstadt, KG Alsergrund, Alsergrund, Wien, 1090, Österreich","(48.2160191, 16.3542585, 0.0)",48.2160191,16.3542585,0.0
Vienna,8.0,Josefstadt,Altlerchenfeld,"Altlerchenfeld, Vienna","Altlerchenfeld, Josefstadt, Wien, 1080, Österreich","(48.2076483, 16.3435623, 0.0)",48.2076483,16.3435623,0.0
Vienna,8.0,Josefstadt,Breitenfeld,"Breitenfeld, Vienna","Breitenfeld, Josefstadt, Wien, 1080, Österreich","(48.2141141, 16.3437856, 0.0)",48.2141141,16.3437856,0.0
Vienna,8.0,Josefstadt,Josefstadt,"Josefstadt, Vienna","Josefstadt, Wien, 1080, Österreich","(48.2105982, 16.35175, 0.0)",48.2105982,16.35175,0.0
Vienna,8.0,Josefstadt,Strozzigrund,"Strozzigrund, Vienna","Strozzigrund, Josefstadt, Wien, 1080, Österreich","(48.2079625, 16.3487541, 0.0)",48.2079625,16.3487541,0.0
Vienna,9.0,Alsergrund,Alservorstadt,"Alservorstadt, Vienna","Alservorstadt, KG Alsergrund, Alsergrund, Wien, 1090, Österreich","(48.2160191, 16.3542585, 0.0)",48.2160191,16.3542585,0.0
Vienna,9.0,Alsergrund,Althangrund,"Althangrund, Vienna","Althangrund, KG Alsergrund, Alsergrund, Wien, 1090, Österreich","(48.2278221, 16.3612857, 0.0)",48.2278221,16.3612857,0.0
Vienna,9.0,Alsergrund,Himmelpfortgrund,"Himmelpfortgrund, Vienna","Himmelpfortgrund, KG Alsergrund, Alsergrund, Wien, 1090, Österreich","(48.2267052, 16.3534929, 0.0)",48.2267052,16.3534929,0.0
Vienna,9.0,Alsergrund,Lichtental,"Lichtental, Vienna","Lichtental, KG Alsergrund, Alsergrund, Wien, 1090, Österreich","(48.2273481, 16.3580472, 0.0)",48.2273481,16.3580472,0.0
Vienna,9.0,Alsergrund,Michelbeuern,"Michelbeuern, Vienna","Michelbeuern, KG Alsergrund, Alsergrund, Wien, 1090, Österreich","(48.2208075, 16.3490427, 0.0)",48.2208075,16.3490427,0.0
Vienna,9.0,Alsergrund,Rossau,"Rossau, Vienna","Rossau, KG Alsergrund, Alsergrund, Wien, 1090, Österreich","(48.2205984, 16.3640768, 0.0)",48.2205984,16.3640768,0.0
Vienna,9.0,Alsergrund,Thurygrund,"Thurygrund, Vienna","Thurygrund, KG Alsergrund, Alsergrund, Wien, 1090, Österreich","(48.2256096, 16.3561963, 0.0)",48.2256096,16.3561963,0.0
Vienna,10.0,Favoriten,Favoriten,"Favoriten, Vienna","Favoriten, Wien, 1100, Österreich","(48.1734232, 16.3779143, 0.0)",48.1734232,16.3779143,0.0
Vienna,10.0,Favoriten,Inzersdorf-Stadt,"Inzersdorf-Stadt, Vienna","KG Inzersdorf Stadt, Favoriten, Wien, 1100, Österreich","(48.161870300000004, 16.355652876402296, 0.0)",48.161870300000004,16.355652876402296,0.0
Vienna,10.0,Favoriten,Oberlaa,"Oberlaa, Vienna","Oberlaa, Unterfahrung Laaer-Berg-Straße, KG Oberlaa Stadt, Favoriten, Wien, 1100, Österreich","(48.1423146, 16.3998868, 0.0)",48.1423146,16.3998868,0.0
Vienna,10.0,Favoriten,Rothneusiedl,"Rothneusiedl, Vienna","Rothneusiedl, Gemeinde Hennersdorf, Bezirk Mödling, Niederösterreich, 2332, Österreich","(48.13595585, 16.378725384980854, 0.0)",48.13595585,16.378725384980854,0.0
Vienna,10.0,Favoriten,Unterlaa,"Unterlaa, Vienna","Unterlaa, Leopoldsdorf, Gemeinde Leopoldsdorf, Bezirk Bruck an der Leitha, Niederösterreich, 2333, Österreich","(48.12804235, 16.418760328578742, 0.0)",48.12804235,16.418760328578742,0.0
Vienna,11.0,Simmering,Albern,"Albern, Vienna","Albern, KG Albern, Simmering, Wien, 1110, Österreich","(48.1600446, 16.484895, 0.0)",48.1600446,16.484895,0.0
Vienna,11.0,Simmering,Kaiserebersdorf,"Kaiserebersdorf, Vienna","Kaiserebersdorf, Wien, Bezirk Bruck an der Leitha, Niederösterreich, 1110, Österreich","(48.1588584, 16.454377184057982, 0.0)",48.1588584,16.454377184057982,0.0
Vienna,11.0,Simmering,Simmering,"Simmering, Vienna","Simmering, Landstraße, Wien, 1110, Österreich","(48.1694815, 16.419897106301242, 0.0)",48.1694815,16.419897106301242,0.0
Vienna,12.0,Meidling,Altmannsdorf,"Altmannsdorf, Vienna","Altmannsdorfer Straße, Kabelwerk, KG Altmannsdorf, Meidling, Wien, 1120, Österreich","(48.165803, 16.3164602, 0.0)",48.165803,16.3164602,0.0
Vienna,12.0,Meidling,Gaudenzdorf,"Gaudenzdorf, Vienna","Gaudenzdorf, Meidling, Wien, 1120, Österreich","(48.1851097, 16.33927747926843, 0.0)",48.1851097,16.33927747926843,0.0
Vienna,12.0,Meidling,Hetzendorf,"Hetzendorf, Vienna","KG Hetzendorf, Meidling, Wien, 1120, Österreich","(48.1672862, 16.3085496, 0.0)",48.1672862,16.3085496,0.0
Vienna,12.0,Meidling,Obermeidling,"Obermeidling, Vienna","Obermeidling, KG Meidling, Meidling, Wien, 1120, Österreich","(48.1817251, 16.3231219, 0.0)",48.1817251,16.3231219,0.0
Vienna,12.0,Meidling,Untermeidling,"Untermeidling, Vienna","Untermeidling, KG Meidling, Meidling, Wien, 1120, Österreich","(48.1813447, 16.3300771, 0.0)",48.1813447,16.3300771,0.0
Vienna,13.0,Hietzing,Hietzing,"Hietzing, Vienna","Hietzing, Wien, 1130, Österreich","(48.17854095, 16.25298581556564, 0.0)",48.17854095,16.25298581556564,0.0
Vienna,13.0,Hietzing,Unter-St.-Veit,"Unter-St.-Veit, Vienna","Unter St. Veit, Hietzinger Kai, KG Unterbaumgarten, Hietzing, Wien, 1130, Österreich","(48.1910668, 16.2863684, 0.0)",48.1910668,16.2863684,0.0
Vienna,13.0,Hietzing,Ober-St.-Veit,"Ober-St.-Veit, Vienna","Ober St. Veit, Hietzinger Kai, KG Ober St. Veit, Hietzing, Wien, 1130, Österreich","(48.192234, 16.2761736, 0.0)",48.192234,16.2761736,0.0
Vienna,13.0,Hietzing,Hacking,"Hacking, Vienna","Hacking, KG Hacking, Hietzing, Wien, 1130, Österreich","(48.19500325, 16.259248178946358, 0.0)",48.19500325,16.259248178946358,0.0
Vienna,13.0,Hietzing,Lainz,"Lainz, Vienna","Lainz, Hietzing, Wien, 1130, Österreich","(48.17179155, 16.269160872510675, 0.0)",48.17179155,16.269160872510675,0.0
Vienna,13.0,Hietzing,Speising,"Speising, Vienna","Speising, Liesing, Wien, 1130, Österreich","(48.1654923, 16.287246937876436, 0.0)",48.1654923,16.287246937876436,0.0
Vienna,14.0,Penzing,Baumgarten,"Baumgarten, Vienna","Baumgarten, Hernalser Hauptstraße, KG Hernals, Hernals, Wien, 1170, Österreich","(48.2200306, 16.325699, 0.0)",48.2200306,16.325699,0.0
Vienna,14.0,Penzing,Breitensee,"Breitensee, Vienna","KG Breitensee, Penzing, Wien, 1140, Österreich","(48.2022735, 16.3064385, 0.0)",48.2022735,16.3064385,0.0
Vienna,14.0,Penzing,Hadersdorf-Weidlingau,"Hadersdorf-Weidlingau, Vienna","KG Hadersdorf, Penzing, Wien, 1140, Österreich","(48.2122034, 16.2227482, 0.0)",48.2122034,16.2227482,0.0
Vienna,14.0,Penzing,Hütteldorf,"Hütteldorf, Vienna","KG Hütteldorf, Penzing, Wien, 1140, Österreich","(48.2018182, 16.2589955, 0.0)",48.2018182,16.2589955,0.0
Vienna,14.0,Penzing,Penzing,"Penzing, Vienna","Penzing, Wien, 1140, Österreich","(48.1896851, 16.3036335, 0.0)",48.1896851,16.3036335,0.0
Vienna,15.0,Rudolfsheim-Fünfhaus,Rudolfsheim,"Rudolfsheim, Vienna","KG Rudolfsheim, Rudolfsheim-Fünfhaus, Wien, 1150, Österreich","(48.1906239, 16.3240128, 0.0)",48.1906239,16.3240128,0.0
Vienna,15.0,Rudolfsheim-Fünfhaus,Fünfhaus,"Fünfhaus, Vienna","KG Fünfhaus, Rudolfsheim-Fünfhaus, Wien, 1150, Österreich","(48.1914504, 16.3341341, 0.0)",48.1914504,16.3341341,0.0
Vienna,15.0,Rudolfsheim-Fünfhaus,Sechshaus,"Sechshaus, Vienna","KG Sechshaus, Rudolfsheim-Fünfhaus, Wien, 1150, Österreich","(48.1876753, 16.3334894, 0.0)",48.1876753,16.3334894,0.0
Vienna,16.0,Ottakring,Neulerchenfeld,"Neulerchenfeld, Vienna","KG Neulerchenfeld, Ottakring, Wien, 1160, Österreich","(48.2088861, 16.3334654, 0.0)",48.2088861,16.3334654,0.0
Vienna,16.0,Ottakring,Ottakring,"Ottakring, Vienna","Ottakring, Wien, 1160, Österreich","(48.2149546, 16.302153494876826, 0.0)",48.2149546,16.302153494876826,0.0
Vienna,17.0,Hernals,Hernals,"Hernals, Vienna","Hernals, Wien, 1170, Österreich","(48.2354031, 16.284214218639107, 0.0)",48.2354031,16.284214218639107,0.0
Vienna,17.0,Hernals,Dornbach,"Dornbach, Vienna","KG Dornbach, Hernals, Wien, 1170, Österreich","(48.2310998, 16.2946208, 0.0)",48.2310998,16.2946208,0.0
Vienna,17.0,Hernals,Neuwaldegg,"Neuwaldegg, Vienna","KG Neuwaldegg, Hernals, Wien, 1170, Österreich","(48.2394619, 16.2831484, 0.0)",48.2394619,16.2831484,0.0
Vienna,18.0,Währing,Gersthof,"Gersthof, Vienna","KG Gersthof, Währing, Wien, 1180, Österreich","(48.2341382, 16.3237393, 0.0)",48.2341382,16.3237393,0.0
Vienna,18.0,Währing,Pötzleinsdorf,"Pötzleinsdorf, Vienna","KG Pötzleinsdorf, Währing, Wien, 1180, Österreich","(48.2415871, 16.3102443, 0.0)",48.2415871,16.3102443,0.0
Vienna,18.0,Währing,Währing,"Währing, Vienna","Währing, Wien, 1180, Österreich","(48.234115, 16.321605699999996, 0.0)",48.234115,16.321605699999996,0.0
Vienna,18.0,Währing,Weinhaus,"Weinhaus, Vienna","KG Weinhaus, Währing, Wien, 1180, Österreich","(48.2296625, 16.3321528, 0.0)",48.2296625,16.3321528,0.0
Vienna,19.0,Döbling,Grinzing,"Grinzing, Vienna","KG Grinzing, Döbling, Wien, 1190, Österreich","(48.2563022, 16.3406235, 0.0)",48.2563022,16.3406235,0.0
Vienna,19.0,Döbling,Heiligenstadt,"Heiligenstadt, Vienna","KG Heiligenstadt, Döbling, Wien, 1190, Österreich","(48.254899, 16.3567055, 0.0)",48.254899,16.3567055,0.0
Vienna,19.0,Döbling,Josefsdorf,"Josefsdorf, Vienna","KG Josefsdorf, Döbling, Wien, 1190, Österreich","(48.2750622, 16.336161, 0.0)",48.2750622,16.336161,0.0
Vienna,19.0,Döbling,Kahlenbergerdorf,"Kahlenbergerdorf, Vienna","KG Kahlenbergerdorf, Döbling, Wien, 1190, Österreich","(48.2747104, 16.3550509, 0.0)",48.2747104,16.3550509,0.0
Vienna,19.0,Döbling,Neustift-am-Walde,"Neustift-am-Walde, Vienna","KG Neustift am Walde, Döbling, Wien, 1190, Österreich","(48.2509944, 16.3019027, 0.0)",48.2509944,16.3019027,0.0
Vienna,19.0,Döbling,Nussdorf,"Nussdorf, Vienna","KG Nussdorf, Döbling, Wien, 1190, Österreich","(48.2590512, 16.3645459, 0.0)",48.2590512,16.3645459,0.0
Vienna,19.0,Döbling,Oberdöbling,"Oberdöbling, Vienna","KG Oberdöbling, Döbling, Wien, 1190, Österreich","(48.2402512, 16.343354, 0.0)",48.2402512,16.343354,0.0
Vienna,19.0,Döbling,Salmannsdorf,"Salmannsdorf, Vienna","KG Salmannsdorf, Döbling, Wien, 1190, Österreich","(48.2546759, 16.2916157, 0.0)",48.2546759,16.2916157,0.0
Vienna,19.0,Döbling,Sievering,"Sievering, Vienna","Sievering, KG Untersievering, Döbling, Wien, 1190, Österreich","(48.2520806, 16.3210458, 0.0)",48.2520806,16.3210458,0.0
Vienna,19.0,Döbling,Unterdöbling,"Unterdöbling, Vienna","KG Unterdöbling, Döbling, Wien, 1190, Österreich","(48.2477929, 16.3486163, 0.0)",48.2477929,16.3486163,0.0
Vienna,20.0,Brigittenau,Brigittenau,"Brigittenau, Vienna","KG Brigittenau, Brigittenau, Wien, 1200, Österreich","(48.24335985, 16.37594211289968, 0.0)",48.24335985,16.37594211289968,0.0
Vienna,20.0,Brigittenau,Zwischenbrücken,"Zwischenbrücken, Vienna","Zwischenbrücken, Brigittenau, Wien, 1200, Österreich","(48.2348212, 16.3866013, 0.0)",48.2348212,16.3866013,0.0
Vienna,21.0,Floridsdorf,Donaufeld,"Donaufeld, Vienna","KG Donaufeld, Floridsdorf, Wien, 1210, Österreich","(48.2533795, 16.4176385, 0.0)",48.2533795,16.4176385,0.0
Vienna,21.0,Floridsdorf,Floridsdorf,"Floridsdorf, Vienna","Floridsdorf, Wien, 1210, Österreich","(48.279815049999996, 16.412134555336003, 0.0)",48.279815049999996,16.412134555336003,0.0
Vienna,21.0,Floridsdorf,Großjedlersdorf,"Großjedlersdorf, Vienna","Großjedlersdorf, Brünner Straße, KG Großjedlersdorf I, Floridsdorf, Wien, 1210, Österreich","(48.2768329, 16.4088361, 0.0)",48.2768329,16.4088361,0.0
Vienna,21.0,Floridsdorf,Jedlesee,"Jedlesee, Vienna","KG Jedlesee, Floridsdorf, Wien, 1210, Österreich","(48.2693595, 16.3876312, 0.0)",48.2693595,16.3876312,0.0
Vienna,21.0,Floridsdorf,Leopoldau,"Leopoldau, Vienna","Leopoldau, Schererstraße, Großfeldsiedlung, KG Leopoldau, Floridsdorf, Wien, 1210, Österreich","(48.277582, 16.4520703, 0.0)",48.277582,16.4520703,0.0
Vienna,21.0,Floridsdorf,Stammersdorf,"Stammersdorf, Vienna","KG Stammersdorf, Floridsdorf, Wien, 1210, Österreich","(48.3019081, 16.4097565, 0.0)",48.3019081,16.4097565,0.0
Vienna,21.0,Floridsdorf,Strebersdorf,"Strebersdorf, Vienna","KG Strebersdorf, Floridsdorf, Wien, 1210, Österreich","(48.2963277, 16.3884443, 0.0)",48.2963277,16.3884443,0.0
Vienna,22.0,Donaustadt,Aspern,"Aspern, Vienna","KG Aspern, Donaustadt, Wien, 1220, Österreich","(48.2181854, 16.4847508, 0.0)",48.2181854,16.4847508,0.0
Vienna,22.0,Donaustadt,Breitenlee,"Breitenlee, Vienna","KG Breitenlee, Donaustadt, Wien, 1220, Österreich","(48.2512829, 16.4975811, 0.0)",48.2512829,16.4975811,0.0
Vienna,22.0,Donaustadt,Essling,"Essling, Vienna","KG Essling, Donaustadt, Wien, 1220, Österreich","(48.2146937, 16.5229794, 0.0)",48.2146937,16.5229794,0.0
Vienna,22.0,Donaustadt,Hirschstetten,"Hirschstetten, Vienna","KG Hirschstetten, Donaustadt, Wien, 1220, Österreich","(48.2354042, 16.4644368, 0.0)",48.2354042,16.4644368,0.0
Vienna,22.0,Donaustadt,Kagran,"Kagran, Vienna","Kagran, Siebeckstraße, KG Kagran, Donaustadt, Wien, 1220, Österreich","(48.2430028, 16.4329191, 0.0)",48.2430028,16.4329191,0.0
Vienna,22.0,Donaustadt,Kaisermühlen,"Kaisermühlen, Vienna","KG Kaisermühlen, Donaustadt, Wien, 1220, Österreich","(48.2281313, 16.4202533, 0.0)",48.2281313,16.4202533,0.0
Vienna,22.0,Donaustadt,Stadlau,"Stadlau, Vienna","Stadlau, Hans-Mayr-Platz, KG Stadlau, Donaustadt, Wien, 1220, Österreich","(48.2197733, 16.449558, 0.0)",48.2197733,16.449558,0.0
Vienna,22.0,Donaustadt,Süßenbrunn,"Süßenbrunn, Vienna","KG Süßenbrunn, Donaustadt, Wien, 1220, Österreich","(48.277789, 16.494958, 0.0)",48.277789,16.494958,0.0
Vienna,23.0,Liesing,Atzgersdorf,"Atzgersdorf, Vienna","KG Atzgersdorf, Liesing, Wien, 1230, Österreich","(48.1469838, 16.2954875, 0.0)",48.1469838,16.2954875,0.0
Vienna,23.0,Liesing,Erlaa,"Erlaa, Vienna","KG Erlaa, Liesing, Wien, 1230, Österreich","(48.1451262, 16.30878158845671, 0.0)",48.1451262,16.30878158845671,0.0
Vienna,23.0,Liesing,Inzersdorf,"Inzersdorf, Vienna","KG Inzersdorf, Liesing, Wien, 1230, Österreich","(48.143972149999996, 16.352716639843592, 0.0)",48.143972149999996,16.352716639843592,0.0
Vienna,23.0,Liesing,Kalksburg,"Kalksburg, Vienna","KG Kalksburg, Liesing, Wien, 1230, Österreich","(48.1376728, 16.2457624, 0.0)",48.1376728,16.2457624,0.0
Vienna,23.0,Liesing,Liesing,"Liesing, Vienna","Liesing, Wien, 1230, Österreich","(48.141106050000005, 16.293916139283585, 0.0)",48.141106050000005,16.293916139283585,0.0
Vienna,23.0,Liesing,Mauer,"Mauer, Vienna","KG Mauer, Liesing, Wien, 1230, Österreich","(48.1507519, 16.2686238, 0.0)",48.1507519,16.2686238,0.0
Vienna,23.0,Liesing,Rodaun,"Rodaun, Vienna","KG Rodaun, Liesing, Wien, 1230, Österreich","(48.1332259, 16.2582368, 0.0)",48.1332259,16.2582368,0.0
Vienna,23.0,Liesing,Siebenhirten,"Siebenhirten, Vienna","Siebenhirten, Porschestraße, Siebenhirten, KG Siebenhirten, Liesing, Wien, 1230, Österreich","(48.130521, 16.3098385, 0.0)",48.130521,16.3098385,0.0
